CCSDS_OMM_VERS = 2.0
CREATION_DATE  = 
ORIGINATOR     = 

OBJECT_NAME    = ALOS-2
OBJECT_ID      = 2014-029A
CENTER_NAME    = EARTH
REF_FRAME      = TEME
TIME_SYSTEM    = UTC
MEAN_ELEMENT_THEORY = SGP/SGP4

EPOCH          = 2026-03-28T22:14:05.287776
MEAN_MOTION    = 14.79445424
ECCENTRICITY   = .00019259
INCLINATION    = 97.9187
RA_OF_ASC_NODE = 186.2438
ARG_OF_PERICENTER = 102.3671
MEAN_ANOMALY   = 257.7757

EPHEMERIS_TYPE = 0
CLASSIFICATION_TYPE = U
NORAD_CAT_ID   = 39766
ELEMENT_SET_NO = 999
REV_AT_EPOCH   = 63971
BSTAR          = .20211366E-3
MEAN_MOTION_DOT = .1457E-4
MEAN_MOTION_DDOT = 0

CCSDS_OMM_VERS = 2.0
CREATION_DATE  = 
ORIGINATOR     = 

OBJECT_NAME    = YAOGAN-29
OBJECT_ID      = 2015-069A
CENTER_NAME    = EARTH
REF_FRAME      = TEME
TIME_SYSTEM    = UTC
MEAN_ELEMENT_THEORY = SGP/SGP4

EPOCH          = 2026-03-28T22:57:15.926976
MEAN_MOTION    = 14.83014283
ECCENTRICITY   = .00004898
INCLINATION    = 98.0122
RA_OF_ASC_NODE = 116.4357
ARG_OF_PERICENTER = 359.7796
MEAN_ANOMALY   = 0.3417

EPHEMERIS_TYPE = 0
CLASSIFICATION_TYPE = U
NORAD_CAT_ID   = 41038
ELEMENT_SET_NO = 999
REV_AT_EPOCH   = 55873
BSTAR          = .43188309E-4
MEAN_MOTION_DOT = .297E-5
MEAN_MOTION_DDOT = 0

CCSDS_OMM_VERS = 2.0
CREATION_DATE  = 
ORIGINATOR     = 

OBJECT_NAME    = ASTRO-H (HITOMI)
OBJECT_ID      = 2016-012A
CENTER_NAME    = EARTH
REF_FRAME      = TEME
TIME_SYSTEM    = UTC
MEAN_ELEMENT_THEORY = SGP/SGP4

EPOCH          = 2026-03-28T17:41:17.074752
MEAN_MOTION    = 15.10121702
ECCENTRICITY   = .00096427
INCLINATION    = 30.9987
RA_OF_ASC_NODE = 233.6186
ARG_OF_PERICENTER = 163.5809
MEAN_ANOMALY   = 196.5142

EPHEMERIS_TYPE = 0
CLASSIFICATION_TYPE = U
NORAD_CAT_ID   = 41337
ELEMENT_SET_NO = 999
REV_AT_EPOCH   = 55511
BSTAR          = .19219618E-3
MEAN_MOTION_DOT = .3309E-4
MEAN_MOTION_DDOT = 0

CCSDS_OMM_VERS = 2.0
CREATION_DATE  = 
ORIGINATOR     = 

OBJECT_NAME    = HXMT (HUIYAN)
OBJECT_ID      = 2017-034A
CENTER_NAME    = EARTH
REF_FRAME      = TEME
TIME_SYSTEM    = UTC
MEAN_ELEMENT_THEORY = SGP/SGP4

EPOCH          = 2026-03-28T22:19:57.901728
MEAN_MOTION    = 15.17701560
ECCENTRICITY   = .00318824
INCLINATION    = 43.0137
RA_OF_ASC_NODE = 269.6825
ARG_OF_PERICENTER = 353.8039
MEAN_ANOMALY   = 6.2411

EPHEMERIS_TYPE = 0
CLASSIFICATION_TYPE = U
NORAD_CAT_ID   = 42758
ELEMENT_SET_NO = 999
REV_AT_EPOCH   = 48546
BSTAR          = .29145165E-3
MEAN_MOTION_DOT = .5821E-4
MEAN_MOTION_DDOT = 0

CCSDS_OMM_VERS = 2.0
CREATION_DATE  = 
ORIGINATOR     = 

OBJECT_NAME    = SAOCOM 1A
OBJECT_ID      = 2018-076A
CENTER_NAME    = EARTH
REF_FRAME      = TEME
TIME_SYSTEM    = UTC
MEAN_ELEMENT_THEORY = SGP/SGP4

EPOCH          = 2026-03-28T22:24:14.849280
MEAN_MOTION    = 14.82160480
ECCENTRICITY   = .00014448
INCLINATION    = 97.8906
RA_OF_ASC_NODE = 275.8347
ARG_OF_PERICENTER = 84.9690
MEAN_ANOMALY   = 275.1688

EPHEMERIS_TYPE = 0
CLASSIFICATION_TYPE = U
NORAD_CAT_ID   = 43641
ELEMENT_SET_NO = 999
REV_AT_EPOCH   = 40421
BSTAR          = .85334815E-4
MEAN_MOTION_DOT = .627E-5
MEAN_MOTION_DDOT = 0

CCSDS_OMM_VERS = 2.0
CREATION_DATE  = 
ORIGINATOR     = 

OBJECT_NAME    = H-2A R/B
OBJECT_ID      = 2018-084L
CENTER_NAME    = EARTH
REF_FRAME      = TEME
TIME_SYSTEM    = UTC
MEAN_ELEMENT_THEORY = SGP/SGP4

EPOCH          = 2026-03-28T21:05:32.412768
MEAN_MOTION    = 15.42148950
ECCENTRICITY   = .00237447
INCLINATION    = 98.8710
RA_OF_ASC_NODE = 309.3783
ARG_OF_PERICENTER = 318.3095
MEAN_ANOMALY   = 41.6337

EPHEMERIS_TYPE = 0
CLASSIFICATION_TYPE = U
NORAD_CAT_ID   = 43682
ELEMENT_SET_NO = 999
REV_AT_EPOCH   = 40873
BSTAR          = .50049341E-3
MEAN_MOTION_DOT = .21578E-3
MEAN_MOTION_DDOT = 0

CCSDS_OMM_VERS = 2.0
CREATION_DATE  = 
ORIGINATOR     = 

OBJECT_NAME    = SAOCOM 1B
OBJECT_ID      = 2020-059A
CENTER_NAME    = EARTH
REF_FRAME      = TEME
TIME_SYSTEM    = UTC
MEAN_ELEMENT_THEORY = SGP/SGP4

EPOCH          = 2026-03-28T23:09:13.718304
MEAN_MOTION    = 14.82157980
ECCENTRICITY   = .00015467
INCLINATION    = 97.8907
RA_OF_ASC_NODE = 274.9634
ARG_OF_PERICENTER = 85.8993
MEAN_ANOMALY   = 274.2397

EPHEMERIS_TYPE = 0
CLASSIFICATION_TYPE = U
NORAD_CAT_ID   = 46265
ELEMENT_SET_NO = 999
REV_AT_EPOCH   = 30160
BSTAR          = .10504048E-3
MEAN_MOTION_DOT = .784E-5
MEAN_MOTION_DDOT = 0

CCSDS_OMM_VERS = 2.0
CREATION_DATE  = 
ORIGINATOR     = 

OBJECT_NAME    = CSS (TIANHE)
OBJECT_ID      = 2021-035A
CENTER_NAME    = EARTH
REF_FRAME      = TEME
TIME_SYSTEM    = UTC
MEAN_ELEMENT_THEORY = SGP/SGP4

EPOCH          = 2026-03-28T21:46:02.673696
MEAN_MOTION    = 15.61593971
ECCENTRICITY   = .00039724
INCLINATION    = 41.4668
RA_OF_ASC_NODE = 91.1438
ARG_OF_PERICENTER = 51.0046
MEAN_ANOMALY   = 309.1146

EPHEMERIS_TYPE = 0
CLASSIFICATION_TYPE = U
NORAD_CAT_ID   = 48274
ELEMENT_SET_NO = 999
REV_AT_EPOCH   = 28061
BSTAR          = .17386378E-3
MEAN_MOTION_DOT = .15066E-3
MEAN_MOTION_DDOT = 0

CCSDS_OMM_VERS = 2.0
CREATION_DATE  = 
ORIGINATOR     = 

OBJECT_NAME    = COSMOS 2550
OBJECT_ID      = 2021-056A
CENTER_NAME    = EARTH
REF_FRAME      = TEME
TIME_SYSTEM    = UTC
MEAN_ELEMENT_THEORY = SGP/SGP4

EPOCH          = 2026-03-28T11:49:31.757952
MEAN_MOTION    = 15.33828274
ECCENTRICITY   = .000844
INCLINATION    = 67.1421
RA_OF_ASC_NODE = 344.0047
ARG_OF_PERICENTER = 269.5686
MEAN_ANOMALY   = 90.4502

EPHEMERIS_TYPE = 0
CLASSIFICATION_TYPE = U
NORAD_CAT_ID   = 48865
ELEMENT_SET_NO = 999
REV_AT_EPOCH   = 26634
BSTAR          = .189685E-6
MEAN_MOTION_DOT = -.186E-5
MEAN_MOTION_DDOT = 0

CCSDS_OMM_VERS = 2.0
CREATION_DATE  = 
ORIGINATOR     = 

OBJECT_NAME    = CZ-2C R/B
OBJECT_ID      = 2022-058K
CENTER_NAME    = EARTH
REF_FRAME      = TEME
TIME_SYSTEM    = UTC
MEAN_ELEMENT_THEORY = SGP/SGP4

EPOCH          = 2026-03-28T15:54:43.791840
MEAN_MOTION    = 15.55620973
ECCENTRICITY   = .004154
INCLINATION    = 50.1874
RA_OF_ASC_NODE = 220.5877
ARG_OF_PERICENTER = 282.1630
MEAN_ANOMALY   = 77.4689

EPHEMERIS_TYPE = 0
CLASSIFICATION_TYPE = U
NORAD_CAT_ID   = 52794
ELEMENT_SET_NO = 999
REV_AT_EPOCH   = 21308
BSTAR          = .63634E-3
MEAN_MOTION_DOT = .46065E-3
MEAN_MOTION_DDOT = 0

CCSDS_OMM_VERS = 2.0
CREATION_DATE  = 
ORIGINATOR     = 

OBJECT_NAME    = CZ-2C R/B
OBJECT_ID      = 2022-132E
CENTER_NAME    = EARTH
REF_FRAME      = TEME
TIME_SYSTEM    = UTC
MEAN_ELEMENT_THEORY = SGP/SGP4

EPOCH          = 2026-03-28T13:57:49.394880
MEAN_MOTION    = 15.63619581
ECCENTRICITY   = .0017701
INCLINATION    = 97.2960
RA_OF_ASC_NODE = 91.4974
ARG_OF_PERICENTER = 29.7061
MEAN_ANOMALY   = 330.5199

EPHEMERIS_TYPE = 0
CLASSIFICATION_TYPE = U
NORAD_CAT_ID   = 54039
ELEMENT_SET_NO = 999
REV_AT_EPOCH   = 19332
BSTAR          = .52079E-3
MEAN_MOTION_DOT = .48831E-3
MEAN_MOTION_DDOT = 0

CCSDS_OMM_VERS = 2.0
CREATION_DATE  = 
ORIGINATOR     = 

OBJECT_NAME    = GSLV R/B
OBJECT_ID      = 2022-138AN
CENTER_NAME    = EARTH
REF_FRAME      = TEME
TIME_SYSTEM    = UTC
MEAN_ELEMENT_THEORY = SGP/SGP4

EPOCH          = 2026-03-28T16:58:04.954656
MEAN_MOTION    = 14.96892763
ECCENTRICITY   = .00240518
INCLINATION    = 87.3861
RA_OF_ASC_NODE = 159.9961
ARG_OF_PERICENTER = 84.1110
MEAN_ANOMALY   = 276.2862

EPHEMERIS_TYPE = 0
CLASSIFICATION_TYPE = U
NORAD_CAT_ID   = 54149
ELEMENT_SET_NO = 999
REV_AT_EPOCH   = 18677
BSTAR          = .20808101E-3
MEAN_MOTION_DOT = .2429E-4
MEAN_MOTION_DDOT = 0

