ALOS-2                  
1 39766U 14029A   26087.92645009  .00001457  00000+0  20211-3 0  9990
2 39766  97.9187 186.2438 0001925 102.3671 257.7757 14.79445424639713
YAOGAN-29               
1 41038U 15069A   26087.95643434  .00000297  00000+0  43188-4 0  9993
2 41038  98.0122 116.4357 0000489 359.7796   0.3417 14.83014283558731
ASTRO-H (HITOMI)        
1 41337U 16012A   26087.73700318  .00003309  00000+0  19220-3 0  9991
2 41337  30.9987 233.6186 0009642 163.5809 196.5142 15.10121702555113
HXMT (HUIYAN)           
1 42758U 17034A   26087.93053127  .00005821  00000+0  29145-3 0  9993
2 42758  43.0137 269.6825 0031882 353.8039   6.2411 15.17701560485461
SAOCOM 1A               
1 43641U 18076A   26087.93350520  .00000627  00000+0  85335-4 0  9992
2 43641  97.8906 275.8347 0001444  84.9690 275.1688 14.82160480404216
H-2A R/B                
1 43682U 18084L   26087.87884737  .00021578  00000+0  50049-3 0  9992
2 43682  98.8710 309.3783 0023744 318.3095  41.6337 15.42148950408735
SAOCOM 1B               
1 46265U 20059A   26087.96474211  .00000784  00000+0  10504-3 0  9997
2 46265  97.8907 274.9634 0001546  85.8993 274.2397 14.82157980301607
CSS (TIANHE)            
1 48274U 21035A   26087.90697539  .00015066  00000+0  17386-3 0  9992
2 48274  41.4668  91.1438 0003972  51.0046 309.1146 15.61593971280617
COSMOS 2550             
1 48865U 21056A   26087.49272868 -.00000186  00000+0  18968-6 0  9997
2 48865  67.1421 344.0047 0008440 269.5686  90.4502 15.33828274266348
CZ-2C R/B               
1 52794U 22058K   26087.66300685  .00046065  00000+0  63634-3 0  9996
2 52794  50.1874 220.5877 0041540 282.1630  77.4689 15.55620973213089
CZ-2C R/B               
1 54039U 22132E   26087.58182170  .00048831  00000+0  52079-3 0  9995
2 54039  97.2960  91.4974 0017701  29.7061 330.5199 15.63619581193324
GSLV R/B                
1 54149U 22138AN  26087.70700179  .00002429  00000+0  20808-3 0  9990
2 54149  87.3861 159.9961 0024051  84.1110 276.2862 14.96892763186772
